[{"OBJECT_NAME":"STARLINK-35421","OBJECT_ID":"2025-235E","EPOCH":"2026-03-09T17:13:22.932192","MEAN_MOTION":15.30194608,"ECCENTRICITY":6.507e-5,"INCLINATION":53.1566,"RA_OF_ASC_NODE":245.2899,"ARG_OF_PERICENTER":92.7123,"MEAN_ANOMALY":267.3952,"EPHEMERIS_TYPE":0,"CLASSIFICATION_TYPE":"U","NORAD_CAT_ID":66062,"ELEMENT_SET_NO":999,"REV_AT_EPOCH":2292,"BSTAR":0.0013205713,"MEAN_MOTION_DOT":0.00038951,"MEAN_MOTION_DDOT":0},{"OBJECT_NAME":"COSMOS 2251 DEB","OBJECT_ID":"1993-036ACD","EPOCH":"2026-03-09T07:40:43.610016","MEAN_MOTION":15.34387517,"ECCENTRICITY":0.00153475,"INCLINATION":74.0247,"RA_OF_ASC_NODE":157.5248,"ARG_OF_PERICENTER":323.6748,"MEAN_ANOMALY":36.3413,"EPHEMERIS_TYPE":0,"CLASSIFICATION_TYPE":"U","NORAD_CAT_ID":34859,"ELEMENT_SET_NO":999,"REV_AT_EPOCH":89676,"BSTAR":0.0069097076,"MEAN_MOTION_DOT":0.00238319,"MEAN_MOTION_DDOT":0}]
